EUTELSAT 33F            
1 29270U 06032A   26169.61628247  .00000149  00000+0  00000+0 0  9993
2 29270   1.6662  82.2282 0003766   3.0397  76.5244  1.00271227 47327
JCSAT-3A                
1 29272U 06033A   26169.68769704 -.00000351  00000+0  00000+0 0  9993
2 29272   0.0130 319.0812 0002225 141.9062 181.5007  1.00270850 47754
KOREASAT 5 (MUGUNGWHA 5)
1 29349U 06034A   26169.62067127 -.00000365  00000+0  00000+0 0  9998
2 29349   1.7900  82.9685 0001569  53.2165 107.1576  1.00269058 41336
DIRECTV 9S              
1 29494U 06043A   26169.66096436 -.00000120  00000+0  00000+0 0  9997
2 29494   2.4256  80.8851 0004970  13.4998 309.2610  1.00270968 51395
OPTUS D1                
1 29495U 06043B   26169.62753024 -.00000191  00000+0  00000+0 0  9995
2 29495   3.0394  79.6400 0003414 359.7017 205.4134  1.00271470 72134
BADR-4                  
1 29526U 06051A   26169.61654247  .00000149  00000+0  00000+0 0  9997
2 29526   2.0094  81.1058 0004774 357.1758  84.9560  1.00271821 51282
WILDBLUE-1              
1 29643U 06054A   26169.73444403 -.00000056  00000+0  00000+0 0  9992
2 29643   2.8081  80.4650 0001413 355.1707 344.5220  1.00270606 53803
SKYNET 5A               
1 30794U 07007B   26169.67798280 -.00000279  00000+0  00000+0 0  9995
2 30794   5.3040  73.7237 0004066  20.5899 151.8549  1.00268593 70717
ANIK F3                 
1 31102U 07009A   26169.65749769 -.00000008  00000+0  00000+0 0  9997
2 31102   1.2023  83.8300 0002512   3.1472 297.8805  1.00272486 46577
ASTRA 1L                
1 31306U 07016A   26169.46226602 -.00000191  00000+0  00000+0 0  9999
2 31306   1.3260  81.5682 0005230  12.4802 314.5902  1.00271053 44993
GALAXY 17 (G-17)        
1 31307U 07016B   26169.52156654 -.00000213  00000+0  00000+0 0  9991
2 31307   2.9764  79.8836 0004658  18.4949 271.1316  1.00271658 69818
INTELSAT 11 (IS-11)     
1 32253U 07044B   26169.62371454 -.00000215  00000+0  00000+0 0  9993
2 32253   3.5701  78.6527 0002428  88.8535  83.4456  0.99050198 68466
WGS F1 (USA 195)        
1 32258U 07046A   26169.45871266 -.00000273  00000+0  00000+0 0  9991
2 32258   0.0399  87.1501 0000266 316.0166 346.1582  1.00270480 52347
SKYNET 5B               
1 32294U 07056B   26169.47205940  .00000132  00000+0  00000+0 0  9997
2 32294   5.2553  73.4909 0003932   8.1570  20.1327  1.00275360 68218
ASTRA 4A                
1 32299U 07057A   26169.61047578  .00000026  00000+0  00000+0 0  9992
2 32299   0.0171  26.5078 0002196  63.9624  40.9432  1.00272181 51664
HORIZONS-2              
1 32388U 07063B   26169.52381987 -.00000261  00000+0  00000+0 0  9995
2 32388   2.6063  80.6082 0003850 358.1173 302.7926  1.00272958 67827
THURAYA-3               
1 32404U 08001A   26169.62455803 -.00000044  00000+0  00000+0 0  9996
2 32404   5.9923  35.8070 0001586 155.7428  14.7951  1.00007522 67500
THOR 5                  
1 32487U 08006A   26169.60960911  .00000000  00000+0  00000+0 0  9992
2 32487   0.0101 353.6640 0002494 101.7738  30.1146  1.00270383 67339
AMC-14                  
1 32708U 08011A   26169.12377111 -.00000063  00000+0  00000+0 0  9995
2 32708  24.0055  20.5077 0045612   7.2417 349.0384  1.00355113 68170
DIRECTV 11              
1 32729U 08013A   26169.51879318 -.00000132  00000+0  00000+0 0  9996
2 32729   0.0096 269.4720 0000152 187.3657 257.5063  1.00271979 45604
ICO G1                  
1 32763U 08016A   26169.52009318 -.00000181  00000+0  00000+0 0  9997
2 32763   5.5279  36.1229 0002329  38.4436 286.5723  1.00272943 66551
VINASAT-1               
1 32767U 08018A   26169.55182219 -.00000335  00000+0  00000+0 0  9999
2 32767   0.0199 308.7971 0001229 149.8545 138.7318  1.00269369 66606
STAR ONE C2             
1 32768U 08018B   26169.52555323 -.00000283  00000+0  00000+0 0  9999
2 32768   1.2452  82.4495 0002472   7.4740 301.0230  1.00272365 66660
AMOS-3                  
1 32794U 08022A   26169.61766913  .00000131  00000+0  00000+0 0  9993
2 32794   0.4599  86.1949 0002048  71.3605  11.6099  1.00477466 82356
GALAXY 18 (G-18)        
1 32951U 08024A   26169.65663102  .00000019  00000+0  00000+0 0  9995
2 32951   0.0159  58.5793 0002786  26.7804 294.9187  1.00270297 45865
ZHONGXING-9             
1 33051U 08028A   26169.74254291 -.00000255  00000+0  00000+0 0  9999
2 33051   0.7736  85.3062 0003840 343.7501 197.6012  1.00268983 66059
SKYNET 5C               
1 33055U 08030A   26169.60622910 -.00000148  00000+0  00000+0 0  9999
2 33055   3.7934  77.0247 0003984  18.0335  12.2335  1.00271603 65978
TURKSAT 3A              
1 33056U 08030B   26169.61801580  .00000140  00000+0  00000+0 0  9994
2 33056   0.0603  80.2470 0005076 351.5575  99.5048  1.00271307 52371
INTELSAT 25 (IS-25)     
1 33153U 08034A   26169.68396065 -.00000185  00000+0  00000+0 0  9990
2 33153   2.7147  80.3557 0003444  60.5610 127.2162  0.99034120 65706
ECHOSTAR 11             
1 33207U 08035A   26169.51671317 -.00000064  00000+0  00000+0 0  9995
2 33207   1.0095  84.1593 0002561 341.0710 277.7454  1.00270495 51226
SUPERBIRD-C2            
1 33274U 08038A   26169.69163235 -.00000313  00000+0  00000+0 0  9993
2 33274   2.3658  81.2442 0005991  25.7401 184.9225  1.00272470105740
INMARSAT 4-F3           
1 33278U 08039A   26169.59028235 -.00000148  00000+0  00000+0 0  9993
2 33278   4.2939  31.6266 0002802  60.2666 289.4374  1.00271378 46550
