OBJECT_NAME,OBJECT_ID,EPOCH,MEAN_MOTION,ECCENTRICITY,INCLINATION,RA_OF_ASC_NODE,ARG_OF_PERICENTER,MEAN_ANOMALY,EPHEMERIS_TYPE,CLASSIFICATION_TYPE,NORAD_CAT_ID,ELEMENT_SET_NO,REV_AT_EPOCH,BSTAR,MEAN_MOTION_DOT,MEAN_MOTION_DDOT
EUTELSAT 33F,2006-032A,2026-06-18T14:47:26.805408,1.00271227,.0003766,1.6662,82.2282,3.0397,76.5244,0,U,29270,999,4732,0,.149E-5,0
JCSAT-3A,2006-033A,2026-06-18T16:30:17.024256,1.00270850,.0002225,0.0130,319.0812,141.9062,181.5007,0,U,29272,999,4775,0,-.351E-5,0
KOREASAT 5 (MUGUNGWHA 5),2006-034A,2026-06-18T14:53:45.997728,1.00269058,.0001569,1.7900,82.9685,53.2165,107.1576,0,U,29349,999,4133,0,-.365E-5,0
DIRECTV 9S,2006-043A,2026-06-18T15:51:47.320704,1.00270968,.000497,2.4256,80.8851,13.4998,309.2610,0,U,29494,999,5139,0,-.12E-5,0
OPTUS D1,2006-043B,2026-06-18T15:03:38.612736,1.00271470,.0003414,3.0394,79.6400,359.7017,205.4134,0,U,29495,999,7213,0,-.191E-5,0
BADR-4,2006-051A,2026-06-18T14:47:49.269408,1.00271821,.0004774,2.0094,81.1058,357.1758,84.9560,0,U,29526,999,5128,0,.149E-5,0
WILDBLUE-1,2006-054A,2026-06-18T17:37:35.964192,1.00270606,.0001413,2.8081,80.4650,355.1707,344.5220,0,U,29643,999,5380,0,-.56E-6,0
SKYNET 5A,2007-007B,2026-06-18T16:16:17.713920,1.00268593,.0004066,5.3040,73.7237,20.5899,151.8549,0,U,30794,999,7071,0,-.279E-5,0
ANIK F3,2007-009A,2026-06-18T15:46:47.800416,1.00272486,.0002512,1.2023,83.8300,3.1472,297.8805,0,U,31102,999,4657,0,-.8E-7,0
ASTRA 1L,2007-016A,2026-06-18T11:05:39.784128,1.00271053,.000523,1.3260,81.5682,12.4802,314.5902,0,U,31306,999,4499,0,-.191E-5,0
GALAXY 17 (G-17),2007-016B,2026-06-18T12:31:03.349056,1.00271658,.0004658,2.9764,79.8836,18.4949,271.1316,0,U,31307,999,6981,0,-.213E-5,0
INTELSAT 11 (IS-11),2007-044B,2026-06-18T14:58:08.936256,0.99050198,.0002428,3.5701,78.6527,88.8535,83.4456,0,U,32253,999,6846,0,-.215E-5,0
WGS F1 (USA 195),2007-046A,2026-06-18T11:00:32.773824,1.00270480,.0000266,0.0399,87.1501,316.0166,346.1582,0,U,32258,999,5234,0,-.273E-5,0
SKYNET 5B,2007-056B,2026-06-18T11:19:45.932160,1.00275360,.0003932,5.2553,73.4909,8.1570,20.1327,0,U,32294,999,6821,0,.132E-5,0
ASTRA 4A,2007-057A,2026-06-18T14:39:05.107392,1.00272181,.0002196,0.0171,26.5078,63.9624,40.9432,0,U,32299,999,5166,0,.26E-6,0
HORIZONS-2,2007-063B,2026-06-18T12:34:18.036768,1.00272958,.000385,2.6063,80.6082,358.1173,302.7926,0,U,32388,999,6782,0,-.261E-5,0
THURAYA-3,2008-001A,2026-06-18T14:59:21.813792,1.00007522,.0001586,5.9923,35.8070,155.7428,14.7951,0,U,32404,999,6750,0,-.44E-6,0
THOR 5,2008-006A,2026-06-18T14:37:50.227104,1.00270383,.0002494,0.0101,353.6640,101.7738,30.1146,0,U,32487,999,6733,0,0,0
AMC-14,2008-011A,2026-06-18T02:58:13.823904,1.00355113,.0045612,24.0055,20.5077,7.2417,349.0384,0,U,32708,999,6817,0,-.63E-6,0
DIRECTV 11,2008-013A,2026-06-18T12:27:03.730752,1.00271979,.0000152,0.0096,269.4720,187.3657,257.5063,0,U,32729,999,4560,0,-.132E-5,0
ICO G1,2008-016A,2026-06-18T12:28:56.050752,1.00272943,.0002329,5.5279,36.1229,38.4436,286.5723,0,U,32763,999,6655,0,-.181E-5,0
VINASAT-1,2008-018A,2026-06-18T13:14:37.437216,1.00269369,.0001229,0.0199,308.7971,149.8545,138.7318,0,U,32767,999,6660,0,-.335E-5,0
STAR ONE C2,2008-018B,2026-06-18T12:36:47.799072,1.00272365,.0002472,1.2452,82.4495,7.4740,301.0230,0,U,32768,999,6666,0,-.283E-5,0
AMOS-3,2008-022A,2026-06-18T14:49:26.612832,1.00477466,.0002048,0.4599,86.1949,71.3605,11.6099,0,U,32794,999,8235,0,.131E-5,0
GALAXY 18 (G-18),2008-024A,2026-06-18T15:45:32.920128,1.00270297,.0002786,0.0159,58.5793,26.7804,294.9187,0,U,32951,999,4586,0,.19E-6,0
ZHONGXING-9,2008-028A,2026-06-18T17:49:15.707424,1.00268983,.000384,0.7736,85.3062,343.7501,197.6012,0,U,33051,999,6605,0,-.255E-5,0
SKYNET 5C,2008-030A,2026-06-18T14:32:58.194240,1.00271603,.0003984,3.7934,77.0247,18.0335,12.2335,0,U,33055,999,6597,0,-.148E-5,0
TURKSAT 3A,2008-030B,2026-06-18T14:49:56.565120,1.00271307,.0005076,0.0603,80.2470,351.5575,99.5048,0,U,33056,999,5237,0,.14E-5,0
INTELSAT 25 (IS-25),2008-034A,2026-06-18T16:24:54.200160,0.99034120,.0003444,2.7147,80.3557,60.5610,127.2162,0,U,33153,999,6570,0,-.185E-5,0
ECHOSTAR 11,2008-035A,2026-06-18T12:24:04.017888,1.00270495,.0002561,1.0095,84.1593,341.0710,277.7454,0,U,33207,999,5122,0,-.64E-6,0
SUPERBIRD-C2,2008-038A,2026-06-18T16:35:57.035040,1.00272470,.0005991,2.3658,81.2442,25.7401,184.9225,0,U,33274,999,10574,0,-.313E-5,0
INMARSAT 4-F3,2008-039A,2026-06-18T14:10:00.395040,1.00271378,.0002802,4.2939,31.6266,60.2666,289.4374,0,U,33278,999,4655,0,-.148E-5,0
